DMSP 5D-3 F16 (USA 172) 
1 28054U 03048A   26183.32410880  .00000003  00000+0  25249-4 0  9998
2 28054  98.9886 207.2522 0008188 102.6599  69.8917 14.14484326171620
METEOSAT-9 (MSG-2)      
1 28912U 05049B   26182.95036416  .00000128  00000+0  00000+0 0  9992
2 28912   9.3931  54.0485 0047169 309.1789 305.1071  1.00267469  7143
DMSP 5D-3 F17 (USA 191) 
1 29522U 06050A   26183.30190250  .00000026  00000+0  36043-4 0  9998
2 29522  98.7380 189.5627 0010502  19.4049 340.7522 14.14994947 14561
FENGYUN 3A              
1 32958U 08026A   26183.27176228  .00000077  00000+0  57219-4 0  9999
2 32958  98.6884 123.8229 0009886  85.0099 275.2206 14.19574231937540
GOES 14                 
1 35491U 09033A   26183.25249388 -.00000328  00000+0  00000+0 0  9990
2 35491   1.7267  82.8720 0002233  25.8305  35.4771  1.00105646  6744
DMSP 5D-3 F18 (USA 210) 
1 35951U 09057A   26183.27425827  .00000271  00000+0  16318-3 0  9992
2 35951  98.9045 164.0110 0010471 202.7018 157.3694 14.14905318861721
EWS-G2 (GOES 15)        
1 36411U 10008A   26183.16737171  .00000031  00000+0  00000+0 0  9999
2 36411   1.3165  82.6452 0005398  45.6656 275.6345  1.00268370 59785
COMS 1                  
1 36744U 10032A   26182.97335694 -.00000072  00000+0  00000+0 0  9993
2 36744   4.8409  75.1829 0011818  13.7699 196.0256  0.99168833 51234
FENGYUN 3B              
1 37214U 10059A   26183.30197780 -.00000117  00000+0 -37383-4 0  9995
2 37214  98.9611 229.3802 0022726 141.5535 309.4158 14.14843593809562
SUOMI NPP               
1 37849U 11061A   26183.28357443  .00000081  00000+0  59478-4 0  9991
2 37849  98.7955 124.0566 0000705 312.3554  47.7562 14.19520479760584
METEOSAT-10 (MSG-3)     
1 38552U 12035B   26183.01224645  .00000001  00000+0  00000+0 0  9997
2 38552   4.7046  60.9486 0001624  15.0656 208.5807  1.00269439 51005
METOP-B                 
1 38771U 12049A   26183.25328903  .00000128  00000+0  78417-4 0  9995
2 38771  98.6496 234.4514 0001329 330.2042  29.9059 14.21443516715404
INSAT-3D                
1 39216U 13038B   26183.25180054 -.00000330  00000+0  00000+0 0  9996
2 39216   1.9629  82.3645 0001074  12.9907  45.0835  1.00269053 47235
FENGYUN 3C              
1 39260U 13052A   26183.23859627  .00000105  00000+0  74557-4 0  9990
2 39260  98.4988 156.4228 0014330 344.9924  15.0824 14.15758540660699
METEOR-M 2              
1 40069U 14037A   26183.27943725  .00000414  00000+0  20867-3 0  9997
2 40069  98.5119 158.4840 0006002   5.4017 354.7224 14.21466492621464
HIMAWARI-8              
1 40267U 14060A   26183.25396722 -.00000265  00000+0  00000+0 0  9998
2 40267   0.0146  26.5150 0001069  79.2428  46.6445  1.00272139 42919
FENGYUN 2G              
1 40367U 14090A   26182.90925532 -.00000294  00000+0  00000+0 0  9992
2 40367   5.6746  72.6430 0003602 150.4692 123.7546  1.00267071 42143
METEOSAT-11 (MSG-4)     
1 40732U 15034A   26183.22802192  .00000070  00000+0  00000+0 0  9990
2 40732   3.2381  71.0163 0002237 348.6637 312.0079  1.00267790  7364
ELEKTRO-L 2             
1 41105U 15074A   26182.93811038 -.00000111  00000+0  00000+0 0  9992
2 41105   6.7296  70.3426 0000516 273.6365 259.1662  1.00271077 38657
SENTINEL-3A             
1 41335U 16011A   26183.29449484  .00000140  00000+0  75973-4 0  9998
2 41335  98.6244 250.4608 0001431  94.5744 265.5600 14.26736918540211
INSAT-3DR               
1 41752U 16054A   26183.09824707 -.00000066  00000+0  00000+0 0  9993
2 41752   0.1413  85.9398 0010089 186.3686 117.1834  1.00272016 35965
HIMAWARI-9              
1 41836U 16064A   26183.25405389 -.00000265  00000+0  00000+0 0  9997
2 41836   0.0318 266.7718 0001347 220.6210  25.1005  1.00269252 35368
GOES 16                 
1 41866U 16071A   26182.99153953 -.00000081  00000+0  00000+0 0  9991
2 41866   0.3760  85.5227 0000571  28.6398  58.1403  1.00272024 35255
FENGYUN 4A              
1 41882U 16077A   26183.25058721 -.00000347  00000+0  00000+0 0  9997
2 41882   2.3591  80.1256 0007933 158.0184 256.0888  1.00276294 35080
CYGFM05                 
1 41884U 16078A   26183.24718889  .00025996  00000+0  34342-3 0  9993
2 41884  34.9554 160.8149 0008084 282.6490  77.3330 15.57313514531105
CYGFM04                 
1 41885U 16078B   26183.23405423  .00034998  00000+0  38060-3 0  9993
2 41885  34.9318 127.8224 0006683 317.2673  42.7533 15.62360416531359
CYGFM02                 
1 41886U 16078C   26183.20528803  .00041671  00000+0  39965-3 0  9990
2 41886  34.9400 122.1012 0007596 320.2897  39.7273 15.65497329531524
CYGFM01                 
1 41887U 16078D   26183.22922895  .00026443  00000+0  34022-3 0  9991
2 41887  34.9385 161.8678 0007956 277.0227  82.9593 15.58012200531057
CYGFM08                 
1 41888U 16078E   26183.22644830  .00031129  00000+0  35974-3 0  9996
2 41888  34.9423 141.0620 0008723 305.9174  54.0741 15.60793110531327
CYGFM07                 
1 41890U 16078G   26183.24860684  .00031773  00000+0  36586-3 0  9993
2 41890  34.9439 129.2429 0007032 318.0003  42.0183 15.60901001531350
CYGFM03                 
1 41891U 16078H   26183.21969063  .00031586  00000+0  36390-3 0  9997
2 41891  34.9396 131.3682 0006978 305.4910  54.5164 15.60889011531323
